NUSAT-1 (FRESCO)        
1 41557U 16033B   22337.48092392  .00018559  00000+0  46698-3 0  9992
2 41557  97.3895  76.0180 0010806 128.8354   1.8258 15.39923976363340
BEESAT-4                
1 41619U 16040W   22336.40308985  .00019972  00000+0  55642-3 0  9997
2 41619  97.1951  22.8963 0006712 224.7184 135.3520 15.36799426346463
CAS-2T & KS-1Q          
1 41847U 16066G   22336.43561040  .00000669  00000+0  10852-3 0  9991
2 41847  98.5318  40.7822 0363608  67.2910 296.6284 14.38930255318508
NAYIF-1 (EO-88)         
1 42017U 17008BX  22337.06589434  .00022611  00000+0  53886-3 0  9990
2 42017  97.2492  41.2253 0004101  19.4682 340.6721 15.41582875322985
ZHUHAI-1 02 (CAS-4B)    
1 42759U 17034B   22337.56900920  .00003192  00000+0  18810-3 0  9995
2 42759  43.0158 119.6475 0011457 280.6700 170.3000 15.13366906301964
ZHUHAI-1 01 (CAS-4A)    
1 42761U 17034D   22337.58847006  .00003378  00000+0  19782-3 0  9990
2 42761  43.0165 118.2044 0011784 282.6998 132.3804 15.13458443301975
MAX VALIER SAT          
1 42778U 17036P   22337.04537304  .00010314  00000+0  35429-3 0  9992
2 42778  97.1861  12.4796 0011862  86.5267 273.7330 15.30230796302650
RADFXSAT (FOX-1B)       
1 43017U 17073E   22336.96436371  .00005789  00000+0  42758-3 0  9995
2 43017  97.6537 224.1917 0244220 355.7829   4.1323 14.82753764272071
FOX-1D (AO-92)          
1 43137U 18004AC  22336.45770809  .00012976  00000+0  40487-3 0  9997
2 43137  97.3539  50.3454 0008357 120.4000 239.8069 15.33312879272052
DIWATA-2B               
1 43678U 18084H   22337.61936632  .00001368  00000+0  13882-3 0  9994
2 43678  97.9943 113.1564 0011283  88.2557 271.9966 14.92522910223082
ES'HAIL 2               
1 43700U 18090A   22337.03717637  .00000149  00000+0  00000+0 0  9995
2 43700   0.0221 318.4311 0001479 317.2854 195.2963  1.00269400 14960
FOX-1CLIFF (AO-95)      
1 43770U 18099N   22336.64965702  .00002814  00000+0  24671-3 0  9990
2 43770  97.6016  38.5402 0015177  74.6133 285.6765 14.97359567218173
ITASAT 1                
1 43786U 18099AE  22336.89984989  .00001867  00000+0  16519-3 0  9991
2 43786  97.6046  39.7850 0015514  65.0937 295.1896 14.97382956218252
JY1SAT (JO-97)          
1 43803U 18099AX  22336.65149428  .00003046  00000+0  26167-3 0  9997
2 43803  97.6004  39.3646 0015447  66.7070 293.5777 14.98088943218245
UWE-4                   
1 43880U 18111E   22336.72704483  .00002983  00000+0  24910-3 0  9996
2 43880  97.6558 240.0804 0011649 114.3494 245.8947 14.99247906214906
NEXUS (FO-99)           
1 43937U 19003F   22336.79918439  .00014991  00000+0  43374-3 0  9992
2 43937  97.1143   3.9269 0016196 270.8251  89.1137 15.35564872215766
PSAT2 (NO-104)          
1 44354U 19036R   22337.40221692  .00112832 -30002-5  55537-3 0  9998
2 44354  28.5196  67.8999 0145755 106.9628 254.7009 15.66593450190922
JAISAT-1                
1 44419U 19038F   22337.44106767  .00008893  00000+0  40786-3 0  9990
2 44419  97.6561 309.4595 0015556 268.1546  91.7907 15.20577729188709
DUCHIFAT-3              
1 44854U 19089C   22337.60604924  .00003447  00000+0  26076-3 0  9991
2 44854  36.9648 176.6435 0006031 165.3906 233.5974 15.02455471163372
CAS-6 (TIANQIN 1)       
1 44881U 19093C   22337.46004076  .00000563  00000+0  77580-4 0  9995
2 44881  97.8808  54.1489 0015027   1.7437 358.3833 14.81951640159800
RS-44 & BREEZE-KM R/B   
1 44909U 19096E   22336.67297934  .00000032  00000+0  91306-4 0  9991
2 44909  82.5193 118.5301 0216442 286.4664  71.2752 12.79716881137027
ORBITAL FACTORY 2 (OF-2)
1 45113U 19071C   22336.35148535  .00052641  00000+0  68991-3 0  9995
2 45113  51.6338 307.1035 0011640  72.7143 287.5122 15.57967420159421
HUSKYSAT-1 (HO-107)     
1 45119U 19071J   22337.36639636  .00041576  00000+0  60610-3 0  9995
2 45119  51.6352 304.0952 0011287  72.1320 288.0901 15.55207912159540
BY70-2                  
1 45857U 20042B   22337.48468653  .00007512  00000+0  94513-3 0  9997
2 45857  97.9445  52.8702 0008820 285.4769  74.5488 14.82312183130476
SALSAT                  
1 46495U 20068K   22336.72070167  .00003025  00000+0  21473-3 0  9999
2 46495  97.7479 278.2968 0017820  68.7917 291.5211 15.05387615119497
BY70-3                  
1 46839U 20079N   22337.50112485  .00042178  00000+0  69045-3 0  9999
2 46839  97.1799  48.1939 0004881  81.4741  44.8527 15.52374003116361
RADFXSAT-2 (AO-109)     
1 47311U 21002C   22337.43810371  .00010358  00000+0  37046-3 0  9994
2 47311  60.6844  84.7363 0038552  77.7879 282.7524 15.28676985104276
UVSQ-SAT                
1 47438U 21006AB  22336.85004203  .00007056  00000+0  34998-3 0  9996
2 47438  97.4168  32.4250 0012490  55.0058 305.2347 15.17958005102804
DIY-1 (ARDUIQUBE)       
1 47963U 21022AH  22337.16121696  .00022391  00000+0  10271-2 0  9994
2 47963  97.5173 237.0802 0011931 275.8481  84.1394 15.20382964 92511
XW-3 (CAS-9)            
1 50466U 21131B   22337.53933744  .00000188  00000+0  75941-4 0  9990
2 50466  98.5694  54.6121 0004454  19.4556 340.6801 14.38585214 49220
TEVEL-3                 
1 50988U 22002E   22337.46304214  .00008382  00000+0  42591-3 0  9991
2 50988  97.4621  41.7080 0008928 189.0734 299.4210 15.17088766 49010
TEVEL-8                 
1 50989U 22002F   22337.39574135  .00008162  00000+0  41556-3 0  9991
2 50989  97.4644  41.6794 0008866 188.8867 231.9125 15.17029961 49009
TEVEL-5                 
1 50998U 22002Q   22337.49366836  .00008606  00000+0  43029-3 0  9999
2 50998  97.4620  41.9402 0010569 184.8441 303.5496 15.17636562 49030
TEVEL-6                 
1 50999U 22002R   22337.49266531  .00008652  00000+0  43246-3 0  9993
2 50999  97.4612  41.9361 0010562 185.0650 302.7871 15.17643154 49037
TEVEL-1                 
1 51013U 22002AF  22337.46780091  .00008272  00000+0  42076-3 0  9998
2 51013  97.4630  41.6813 0008911 188.0485 298.0633 15.17058427 49012
TEVEL-7                 
1 51062U 22002CG  22337.47564671  .00008253  00000+0  42013-3 0  9997
2 51062  97.4638  41.7393 0009174 187.2646 298.4656 15.17030438 49011
TEVEL-4                 
1 51063U 22002CH  22337.47729887  .00008196  00000+0  41746-3 0  9998
2 51063  97.4635  41.7335 0009058 187.1695 298.2237 15.17012912 49019
TEVEL-2                 
1 51069U 22002CP  22337.46475725  .00008379  00000+0  42586-3 0  9998
2 51069  97.4619  41.6903 0008743 189.6935 298.6258 15.17084061 49012
GREENCUBE               
1 53106U 22080B   22334.45194177 -.00000003  00000+0  00000+0 0  9991
2 53106  70.1746  28.7668 0008951 229.3699 130.6183  6.42557462  8980
YUZGU 9 (RS3S)          
1 53308U 98067TT  22337.27051042  .00104319  00000+0  89109-3 0  9994
2 53308  51.6353 211.8848 0008480 160.0366 200.0964 15.68630793 21044
YUZGU 7 (RS1S)          
1 53309U 98067TU  22337.50435680  .00108418  00000+0  89858-3 0  9990
2 53309  51.6348 210.4403 0008811 164.1818 195.9456 15.69343044 21034
YUZGU 11 (RS5S)         
1 53310U 98067TV  22337.52417157  .00102966  00000+0  87804-3 0  9994
2 53310  51.6353 210.5785 0008591 162.9598 197.1688 15.68676633 21068
YUZGU 12 (RS6S)         
1 53311U 98067TW  22337.54605734  .00117820  00000+0  94584-3 0  9995
2 53311  51.6341 209.9672 0008392 161.2595 198.8713 15.70080182 21092
TSIOLKOVSKY-RYAZAN 1 (*)
1 53312U 98067TX  22337.50710400  .00109558  00000+0  91997-3 0  9993
2 53312  51.6355 210.4657 0008888 164.4739 195.6532 15.69020637 21027
TSIOLKOVSKY-RYAZAN 2 (*)
1 53313U 98067TY  22337.50257797  .00105682  00000+0  88188-3 0  9991
2 53313  51.6358 210.4365 0008462 165.6138 194.5101 15.69193461 21072
YUZGU 10 (RS4S)         
1 53321U 98067TZ  22337.51596367  .00104867  00000+0  88107-3 0  9995
2 53321  51.6350 210.5239 0008554 162.6504 197.4787 15.69030217 21071
RS29S (SXC3-2110 CYCLO*)
1 53373U 22096D   22337.35606707  .00011979  00000+0  45126-3 0  9998
2 53373  97.4276 238.0783 0003103  96.6696  41.7418 15.27236306 17691
RS32S (SXC3-212 MONITO*)
1 53374U 22096E   22337.54215484  .00010832  00000+0  40762-3 0  9996
2 53374  97.4266 238.2770 0003400  92.4012  31.7235 15.27295799 17726
RS34S (SXC3-218 KUZBAS*)
1 53375U 22096F   22337.49797765  .00009874  00000+0  37633-3 0  9995
2 53375  97.4277 238.2083 0003395  98.7907  75.4885 15.26900950 17717
RS23S (SXC3-21 UTMN)    
1 53376U 22096G   22337.48233619  .00010200  00000+0  38778-3 0  9994
2 53376  97.4272 238.2003 0003340  91.4489  13.8097 15.26973389 17717
RS28S (SXC3-214 MIET-A*)
1 53377U 22096H   22337.49426315  .00009490  00000+0  36169-3 0  9994
2 53377  97.4281 238.2158 0003476  93.2844  80.9745 15.26912242 17710
RS26S (KAI-1)           
1 53378U 22096J   22337.36234969  .00008535  00000+0  32755-3 0  9999
2 53378  97.4277 238.0703 0003425  86.2486  55.7741 15.26713946 17691
RS19S (SXC3-219 ISOI)   
1 53381U 22096M   22337.51162082  .00009275  00000+0  34803-3 0  9994
2 53381  97.4270 238.3122 0005892  51.3207  53.3090 15.27425404 17725
RS21S (CUBESX-HSE-2)    
1 53383U 22096P   22337.52097381  .00010108  00000+0  37839-3 0  9995
2 53383  97.4276 238.3323 0006175  51.1062 122.0430 15.27476020 17720
RS30S (SXC3-217 SIREN)  
1 53384U 22096Q   22337.51539672  .00009169  00000+0  34520-3 0  9998
2 53384  97.4275 238.3176 0006131  50.2183  75.4916 15.27317189 17722
RS20S (GEOSCAN-EDELVEIS)
1 53385U 22096R   22337.47719637  .00012689  00000+0  46372-3 0  9994
2 53385  97.4267 238.3558 0006633  48.6398  54.5139 15.28208867 17755
RS33S (SXC3-215 VIZARD) 
1 53386U 22096S   22337.37758865  .00014703  00000+0  52399-3 0  9995
2 53386  97.4269 238.3370 0007425  48.0425  58.9224 15.28994931 17730
CUTE-1 (CO-55)          
1 27844U 03031E   22337.52077160  .00000241  00000+0  12732-3 0  9991
2 27844  98.6796 342.6735 0009391 338.4892  21.5890 14.22550066  7947
CUBESAT XI-IV (CO-57)   
1 27848U 03031J   22336.83349652  .00000194  00000+0  10714-3 0  9991
2 27848  98.6838 342.4770 0009602 355.6607   4.4486 14.22093034  7594
